OBJECT_NAME,OBJECT_ID,EPOCH,MEAN_MOTION,ECCENTRICITY,INCLINATION,RA_OF_ASC_NODE,ARG_OF_PERICENTER,MEAN_ANOMALY,EPHEMERIS_TYPE,CLASSIFICATION_TYPE,NORAD_CAT_ID,ELEMENT_SET_NO,REV_AT_EPOCH,BSTAR,MEAN_MOTION_DOT,MEAN_MOTION_DDOT
IONOSFERA-M 4,2025-155B,2026-06-13T21:38:53.415168,14.21488164,.0000936,98.6029,126.8071,120.6247,239.5023,0,U,64877,999,4593,.37204E-4,.39E-6,0
MICROCARB,2025-156A,2026-06-13T18:02:27.445056,14.72322345,.0014984,97.9831,241.9503,284.2888,75.6656,0,U,64899,999,4746,.81536E-4,.466E-5,0
CO3D 3,2025-156B,2026-06-13T19:56:09.888000,15.20197041,.0001314,97.4334,243.5718,130.8972,229.2377,0,U,64900,999,4902,.22128E-3,.4725E-4,0
CO3D 4,2025-156C,2026-06-13T19:56:23.052768,15.20197854,.0000387,97.4332,243.5723,13.6241,346.5005,0,U,64901,999,4902,.15085E-4,.259E-5,0
CO3D 2,2025-156D,2026-06-13T19:08:22.041312,15.20193868,.0001475,97.4337,243.4376,105.5107,254.6291,0,U,64902,999,4901,.21894E-3,.4674E-4,0
CO3D 1,2025-156E,2026-06-13T19:08:35.064384,15.20192902,.0001266,97.4336,243.4383,105.7215,254.4160,0,U,64903,999,4901,.24627E-3,.5266E-4,0
PRSC-S1,2025-164A,2026-06-13T19:35:43.166112,15.06430611,.0007086,41.1314,306.7953,323.4101,36.6228,0,U,65055,999,4792,.35343E-3,.5131E-4,0
SENTINEL-6B,2025-264A,2026-06-13T15:36:42.382656,12.80929959,.0008041,66.0391,142.5242,269.2518,90.7576,0,U,66514,999,2671,.24972E-4,-.55E-6,0
CAS500-3,2025-274F,2026-06-13T18:52:28.432416,14.88313844,.0006605,97.7447,92.9148,118.9837,241.2043,0,U,66655,999,2964,.13115E-3,.1159E-4,0
CSG-3,2026-001A,2026-06-13T18:08:38.084640,14.82151703,.0001337,97.8885,348.4075,93.8295,266.3071,0,U,67304,999,2395,.4644E-4,.317E-5,0
PRSC-E03,2026-092A,2026-06-13T19:23:46.357152,15.06652962,.0004326,38.0001,109.6049,338.6276,21.4304,0,U,68835,999,744,.17903E-3,.2598E-4,0
