IONOSFERA-M 4           
1 64877U 25155B   26164.90200712  .00000039  00000+0  37204-4 0  9991
2 64877  98.6029 126.8071 0000936 120.6247 239.5023 14.21488164 45937
MICROCARB               
1 64899U 25156A   26164.75170654  .00000466  00000+0  81536-4 0  9991
2 64899  97.9831 241.9503 0014984 284.2888  75.6656 14.72322345 47464
CO3D 3                  
1 64900U 25156B   26164.83067000  .00004725  00000+0  22128-3 0  9996
2 64900  97.4334 243.5718 0001314 130.8972 229.2377 15.20197041 49027
CO3D 4                  
1 64901U 25156C   26164.83082237  .00000259  00000+0  15085-4 0  9999
2 64901  97.4332 243.5723 0000387  13.6241 346.5005 15.20197854 49021
CO3D 2                  
1 64902U 25156D   26164.79747733  .00004674  00000+0  21894-3 0  9993
2 64902  97.4337 243.4376 0001475 105.5107 254.6291 15.20193868 49017
CO3D 1                  
1 64903U 25156E   26164.79762806  .00005266  00000+0  24627-3 0  9997
2 64903  97.4336 243.4383 0001266 105.7215 254.4160 15.20192902 49016
PRSC-S1                 
1 65055U 25164A   26164.81647183  .00005131  00000+0  35343-3 0  9996
2 65055  41.1314 306.7953 0007086 323.4101  36.6228 15.06430611 47921
SENTINEL-6B             
1 66514U 25264A   26164.65049054 -.00000055  00000+0  24972-4 0  9991
2 66514  66.0391 142.5242 0008041 269.2518  90.7576 12.80929959 26719
CAS500-3                
1 66655U 25274F   26164.78644019  .00001159  00000+0  13115-3 0  9995
2 66655  97.7447  92.9148 0006605 118.9837 241.2043 14.88313844 29646
CSG-3                   
1 67304U 26001A   26164.75599635  .00000317  00000+0  46440-4 0  9999
2 67304  97.8885 348.4075 0001337  93.8295 266.3071 14.82151703 23954
PRSC-E03                
1 68835U 26092A   26164.80817543  .00002598  00000+0  17903-3 0  9990
2 68835  38.0001 109.6049 0004326 338.6276  21.4304 15.06652962  7444
